ONEWEB-0137             
1 47283U 20100AB  23059.52786369 -.00000944  00000+0 -26593-2 0  9997
2 47283  87.8939 229.9593 0002085  98.4102 261.7263 13.12456510106550
ONEWEB-0137             
1 47283U 20100AB  23059.90904934  .00000290  00000+0  77023-3 0  9996
2 47283  87.8939 229.8830 0001760 100.1557 259.9770 13.12448734106604
ONEWEB-0137             
1 47283U 20100AB  23059.98528638  .00000426  00000+0  11475-2 0  9996
2 47283  87.8937 229.8673 0001531 105.1764 254.9534 13.12447134106615
ONEWEB-0137             
1 47283U 20100AB  23060.90013469 -.00000425  00000+0 -12155-2 0  9998
2 47283  87.8941 229.6862 0001781  99.1582 260.9748 13.12443569106730
ONEWEB-0137             
1 47283U 20100AB  23061.51002946 -.00000384  00000+0 -11016-2 0  9993
2 47283  87.8942 229.5650 0001784  98.8863 261.2467 13.12444459106816
ONEWEB-0137             
1 47283U 20100AB  23062.42487506 -.00000106  00000+0 -33089-3 0  9990
2 47283  87.8944 229.3834 0001744  98.8490 261.2836 13.12441507106936
ONEWEB-0137             
1 47283U 20100AB  23062.72982422 -.00000176  00000+0 -52496-3 0  9990
2 47283  87.8946 229.3229 0001750  98.8040 261.3286 13.12440803106976
ONEWEB-0137             
1 47283U 20100AB  23062.88229896 -.00000285  00000+0 -82863-3 0  9998
2 47283  87.8945 229.2926 0001733  99.0697 261.0628 13.12440557106995
